<?xml version="1.0" encoding="UTF-8"?>
<kml xmlns="http://www.opengis.net/kml/2.2" xmlns:gx="http://www.google.com/kml/ext/2.2">
    <Document id="1">
        <Style id="4">
            <LineStyle id="5">
                <color>ff00ffff</color>
                <colorMode>normal</colorMode>
                <width>4</width>
            </LineStyle>
        </Style>
        <Style id="8">
            <IconStyle id="10">
                <color>ff00ff00</color>
                <colorMode>normal</colorMode>
                <scale>1</scale>
                <heading>0</heading>
                <Icon id="11">
                    <href>http://maps.google.com/mapfiles/kml/pushpin/ylw-pushpin.png</href>
                </Icon>
            </IconStyle>
            <LabelStyle id="9">
                <colorMode>normal</colorMode>
                <scale>1.0</scale>
            </LabelStyle>
        </Style>
        <Placemark id="3">
            <name>Full Neighborhood Path</name>
            <styleUrl>#4</styleUrl>
            <LineString id="2">
                <tessellate>1</tessellate>
                <altitudeMode>clampToGround</altitudeMode>
                <coordinates>34.81323262246804,32.16875395937837,29.042548715136945 34.81325021555525,32.16874536740387,70.34845180623233 34.81323037183122,32.16873610673318,48.586960231885314 34.81319313229356,32.16874602828122,39.59970130678266 34.81315692796514,32.168732002631174,33.43890865240246 34.81317297299673,32.16872836140505,49.64274594467133 34.813159210937656,32.16874268394341,65.49629255943 34.81316241641686,32.1687531725405,37.34286876954138 34.81318368285209,32.16875614442257,73.19107226934284 34.81320066510184,32.16877231799232,60.44590273499489 34.81320795351725,32.168775910785016,41.96528771147132 34.81319170906501,32.16875583778236,36.06293091829866 34.813176301379386,32.168750553159214,38.512016653083265 34.813145536447536,32.16874812981517,4.729454764164984 34.81310436179242,32.16876327624034,38.44883516989648 34.81305368407881,32.16878555401898,54.45916426554322 34.81299836724366,32.1687996683044,37.676801088266075 34.81293453393704,32.168837195354634,33.60242026112974 34.812871500345615,32.16884940874229,37.438017373904586 34.8128120651214,32.16883069360516,39.91377929598093 34.812737428864075,32.16883373616391,36.56185863073915 34.812662817085204,32.16884077359323,30.984506147913635 34.81259148430677,32.16883579090854,40.08715380355716 34.81251687967297,32.16883190238961,39.64248755015433 34.812414234184864,32.16883457022558,50.28015436604619 34.81234887106165,32.16880722404316,48.57447334751487 34.81228481394154,32.16882282453356,36.60688701085746 34.81219741888472,32.16876638727602,21.17537511512637 34.81210598132162,32.168736690091436,56.13360875286162 34.81205819289428,32.16876775987493,10.49439881555736 34.811991459887835,32.1687931015541,12.713740086182952 34.81193051334952,32.16880579585997,44.52666073106229 34.811906715270446,32.16886405777119,44.28240646701306 34.8118857916075,32.168910737030835,52.84900273755193 34.81186604892241,32.16890908821639,39.92096151225269 34.81185957377126,32.168933734046604,47.05209304019809 34.81185708117644,32.168945877736405,60.498655777424574 34.81186409165388,32.16897365120549,51.735057718120515 34.81185758609597,32.1690037540579,49.23828443419188 34.81187703475622,32.169032462594316,38.71621010825038 34.811901363044726,32.16906293566852,34.01663309708238 34.81192067673654,32.16909503882261,41.648618748411536 34.81194392547802,32.169141295897205,50.010929360985756 34.81199985984544,32.169186676710844,25.044178493320942 34.81202949087724,32.169234884374376,45.87896364554763 34.81205074807739,32.16930840098686,30.392232179641724 34.812090135348946,32.16938847769497,27.989427813328803 34.81212669697264,32.169456724776104,61.919752032496035 34.81214791170696,32.16952530239869,59.67855951562524 34.81219397793971,32.169618960866735,37.67039186693728 34.812235559297314,32.16967569394326,26.416004647500813 34.81228220663938,32.16975937325577,42.916174268350005 34.812313832884605,32.1698339754382,47.61104352399707 34.81234494409337,32.16991027208469,53.32561173290014 34.81235570394656,32.16997751418366,44.64786991290748 34.81238901227091,32.1700526257459,21.087408741004765 34.81240722332103,32.17010469496493,21.17120952345431 34.81244192300578,32.170182933224275,25.813836726360023 34.81248244193394,32.17025730642673,24.812485544010997 34.81253266527258,32.17032529164873,56.82605231925845 34.81255727457334,32.17039751223287,19.99385322071612 34.81259362387651,32.17047131265406,27.120684636756778 34.812630248653434,32.17054528270873,37.263356366194785 34.81267138436159,32.17062864664101,18.844870924018323 34.812695555114125,32.170696817879204,49.0523484647274 34.81273117743387,32.17079549811453,52.06432251166552 34.8127710190457,32.170867663965716,19.813232908025384 34.812825228138195,32.1709265707244,56.11514451820403 34.81284583522243,32.170989634814376,41.70498835854232 34.812879394729855,32.17107284231522,53.166124789975584 34.812915972053204,32.17113745869584,36.01782256178558 34.81292316328624,32.17121239381895,41.26355610694736 34.81291444835467,32.17128028292441,64.98243135679513 34.81292148962292,32.17135755169072,47.99169331882149 34.81293397685768,32.17143148356055,28.30018879659474 34.81292960127534,32.17150331395157,43.009193094447255 34.812941089703784,32.17158548059773,38.26038807909936 34.81295163195072,32.17166620747313,47.3681708201766 34.81297196964321,32.17174307444696,41.388622384518385 34.81297514675885,32.171810977144574,39.61089307628572 34.81299580820208,32.17186536510026,37.744334681890905 34.813022700796424,32.171934581787156,40.97967610694468 34.81303539725657,32.172002591590584,25.17642013821751 34.813040788807406,32.17205840845675,51.43288870714605 34.81305959977424,32.17212326755151,53.57586459070444 34.81305911887916,32.17218197490534,41.96408506389707 34.81306161811405,32.1722208885075,40.936220166273415 34.81306821689827,32.172263079859874,40.02152292057872 34.813069706761226,32.17230850934037,49.381522258743644 34.81306594136759,32.17234784561324,30.64816344436258 34.813057303949805,32.172388225293204,47.63566309772432 34.81303770817576,32.172417934491456,46.936979037709534 34.81300002328609,32.172448640504854,50.17381426598877 34.812980287428346,32.17247492421318,36.52467439696193 34.812940155249166,32.172477888034436,46.54192879796028 34.812894701082904,32.172474401593455,46.318596582859755 34.81282766870303,32.172503226743345,40.366260627284646 34.81278108040114,32.1725192211352,44.53136675618589 34.81271568402023,32.172515426317275,51.839925839565694 34.81265132827711,32.17252709208719,47.479932352900505 34.81259896859729,32.172542650244246,50.25241922959685 34.812546058409,32.172545801898764,38.28762973751873 34.81248782348668,32.1725498270221,33.52939357701689 34.812424418886714,32.17256750156332,54.27631400618702 34.812365333522294,32.17257628369346,43.773358231410384 34.812289977222804,32.172603701459366,52.53178921435028 34.81225200536775,32.17259699782926,50.85083749610931 34.812207030875754,32.172582630100806,47.30749527551234 34.81217328810898,32.17256175829793,45.466202474199235 34.81214294873832,32.172534994851944,20.531803062185645 34.81214523639502,32.17249017718752,34.81645645108074 34.81213961705634,32.17244972168085,45.57215164601803 34.81214652495496,32.17242717167106,35.100690092891455 34.81213933372753,32.17240666804497,36.312592887319624 34.8121399582371,32.172377083975675,30.839662672020495 34.812107025078724,32.17233937548097,51.22411404084414 34.81208092807637,32.172298521040446,45.75235655810684 34.81202392487413,32.172250642394346,45.550184545107186 34.81200801322135,32.17218955681514,52.32062387466431 34.81197187268059,32.17213013557026,53.126261439174414 34.811969069012505,32.17207347411589,28.75568998325616 34.81193317712669,32.172018445237036,49.370766195468605 34.81191265137685,32.17196540118797,33.93976667802781 34.811890440980804,32.171923861600476,40.958034770563245 34.81187156474008,32.17188570831844,49.74317831452936 34.81184961110758,32.171828518679945,23.843546167947352 34.811831908737936,32.17177728047403,44.59486851096153 34.81180480879733,32.171694197048325,31.55325338151306 34.811769357175805,32.17161177815934,49.713447742164135 34.81175849464932,32.171544737103446,78.63726723752916 34.811720123167824,32.17149647084881,52.97615387197584 34.81170091874451,32.171448846550675,43.84292843937874 34.81170003632822,32.171408723805826,17.624207817949355 34.81166639564832,32.17135750908239,23.1806037472561 34.81162312040091,32.171297898318485,47.057228029705584 34.811609735232246,32.171229255388305,51.22154883015901 34.811558731812134,32.17114395940269,43.12193664908409 34.811509482274055,32.17107863663257,36.09749611839652 34.811480021671834,32.17100989713628,60.8114853547886 34.81145521173616,32.17094373029758,36.476970174349844 34.81140055664816,32.1708732672259,64.26077101100236 34.81137577847327,32.170813570533916,26.479460721835494 34.81134334044255,32.170743313720195,40.02561796270311 34.81133125783491,32.17069818747302,47.925240103155375 34.81128987733785,32.17064917997597,50.61593880970031 34.81126242940074,32.17059050652466,28.192330691963434 34.81122807749398,32.1705353403962,29.158513315953314 34.81120545665728,32.17046852642649,40.610711017623544 34.811161632893494,32.17039634325831,40.409890584647655 34.81114433941529,32.17030667696942,64.98914257436991 34.81112950037453,32.17025952681407,37.05147520173341 34.81110388442447,32.17020367331316,38.87684561498463 34.81106402381367,32.17016273373379,20.25114561803639 34.811034368264906,32.17009802394449,34.990417315624654 34.81100959444656,32.17005719474349,42.10174253024161 34.81100572878771,32.169976431003775,40.51206144411117 34.81097929968884,32.16990468594498,20.24779294617474 34.81095874342385,32.169836763951615,8.849689721129835 34.81093853668098,32.16977936158208,44.4414209574461 34.81089298715334,32.169705989696176,46.529030413366854 34.81083350362409,32.16963350051161,35.106679908931255 34.81078517940123,32.169555153731515,39.071952145546675 34.81076556787693,32.169477562160644,30.319939386099577 34.81070043926292,32.16938310151956,63.44553393591195 34.81069418314839,32.16932185463762,34.206860517151654 34.810655804043186,32.16925659265026,63.14345480687916 34.81064742300983,32.16918602405565,15.876126760616899 34.81058839868062,32.169108809255235,54.57027767319232 34.81056292574987,32.16907122142338,38.12973432149738 34.81052939270378,32.16899428699962,62.79392135608941 34.810513378595125,32.16893466068159,59.51854876149446 34.810500949999714,32.16889099385738,57.15846037212759 34.81053127893998,32.16885244828396,34.640761812217534 34.81056760889295,32.168792951276956,47.76723049860448 34.810569115385064,32.16875127686187,34.22534073982388 34.8105957132339,32.1687197446397,52.30045621562749 34.81066230379212,32.16870351029256,37.290977193042636 34.81072779639616,32.16869097619014,26.09243219718337 34.810792807863464,32.16869536065974,40.03767485357821 34.81088704976206,32.16871226488218,42.08792170602828 34.81098344192485,32.168720252358305,34.80866268277168 34.81105635317461,32.16873032302042,33.23326608911157 34.81115556972436,32.16874119847418,22.021178976632655 34.811256088041475,32.16874307928082,30.055441968142986 34.811343654076815,32.16873953192545,24.6260534953326 34.811432994885045,32.16875835398473,31.898908108472824 34.811499728440744,32.1687555439535,29.585360296070576 34.81153783521562,32.1687498860402,33.45940704829991 34.811590256084706,32.16876126854943,30.219758336432278 34.81163740390558,32.168777108862436,20.26568536646664 34.81167022914292,32.16877895351233,31.576768373139203 34.811721590892446,32.16878719723696,32.089509818702936 34.81176942247622,32.16880664385853,30.46263841446489 34.81180946100456,32.16881446526399,23.939328647218645 34.81184344993134,32.16881780301598,31.663671475835145 34.81190476447264,32.16883805311405,31.18698201701045 34.81195398384597,32.168864475649215,34.85358372423798 34.81202131624118,32.16887455919781,30.130227148532867 34.81210160898909,32.16888585186227,41.87512877956033 34.81216654349843,32.16887641837478,48.84494522213936 34.81224550537922,32.16886322987517,58.80484863370657 34.812325692843416,32.1688399091557,23.805375702679157 34.81239457030458,32.16883234019117,57.178458836860955 34.81245318357568,32.16882490039456,43.162050317041576 34.812539852468596,32.16882896502589,35.81026607658714 34.812585743442284,32.1688218708653,34.86989180929959 34.812644918378744,32.168827969069284,34.76710317004472 34.812713064538656,32.16882899572538,28.20746930409223 34.81278680904348,32.16882616520603,34.10954930540174 34.8128341036717,32.16881837478178,30.658662752248347 34.81289016057794,32.16880975607317,44.059535392560065 34.812949683238585,32.16878446103111,7.89690724760294 34.81299509549733,32.16878145223667,33.36402257531881 34.81303372115762,32.16877289042564,39.786136792972684 34.813073784591545,32.16877808139827,36.58064692467451 34.813133215984486,32.168788882750185,49.27097750362009 34.81317619050138,32.16879243827667,32.72307571396232 34.813212087280775,32.16878826815255,53.62390510644764 34.81328160158397,32.16880135743879,40.755692639388144 34.8133589713082,32.168803733933174,44.14864967484027 34.81336146936726,32.16878230306848,107.993608513847 34.813368721434564,32.168797015395796,77.90229508467019 34.81337390193115,32.16878971565687,-3.2919377479702234 34.81332547638415,32.16878223465724,45.7767001548782 34.81328137931526,32.16878702282656,72.96519296430051 34.81328007783857,32.16881548800447,58.444231947883964 34.81329051814197,32.16882788667556,62.3799702282995 34.813285131704106,32.16884899410543,89.3924300596118 34.81329075207334,32.168834914979314,82.56014838349074 34.81330748163517,32.16881972311838,64.8057231316343 34.813295288400965,32.16880894428806,66.88413804396987 34.81326704022175,32.16879675623503,72.82259947154671 34.81320639616105,32.16875505998729,53.20878750272095 34.81320864644124,32.16876820703352,45.80560627300292 34.813198507063774,32.168772235992165,56.714076947420835 34.81321199617726,32.168767833315776,58.86563110444695 34.81322559158622,32.16876238168108,60.65596939995885 34.81328251485816,32.168785355092254,68.76668839156628 34.81327445651404,32.168767674586796,29.66466709971428 34.81327025034903,32.16876290566369,32.12331231124699 34.813257015448116,32.168766409116394,49.40289352182299 34.813214825658335,32.16881254602312,80.37693270295858 34.813223170153584,32.16879657900495,79.87459513731301 34.8132123572386,32.16880479397601,105.6320094158873 34.81319840253317,32.16877393200044,81.04077930096537 34.813218090013166,32.168767210429976,51.53605850785971 34.813262835082845,32.16872221681315,19.31904355622828 34.81329491971845,32.16873006377436,61.38757586013526 34.813320148693876,32.16871218536266,85.72291117534041 34.81334152095054,32.16872240288727,70.81322409026325 34.81330874741747,32.16872149859607,51.081109596416354 34.81330181731667,32.168689988758864,40.38167421706021 34.813232172382385,32.16860409616166,77.35002711415291 34.81325247229215,32.168538196573124,22.388120434246957 34.8132664418351,32.16851045024427,6.620439204387367 34.81328338004985,32.16847002244357,-13.196729211136699 34.81329516771226,32.168477408125604,6.8667530892416835 34.813322705433585,32.168527199825476,70.44465280231088 34.81328312810053,32.16855431920029,51.2822031006217 34.81325917703999,32.16855823980107,59.106803935952485 34.81325168965887,32.1685641074355,30.89371094573289 34.813218330084645,32.16852840527429,50.80728737358004 34.81321753064138,32.168520734510835,57.151090770959854 34.813217738206745,32.16854632846346,20.599625100381672 34.8132029591225,32.16855866616969,38.53204378671944 34.813220754574886,32.16855729351319,70.27685069106519 34.813213797075804,32.16853836827008,77.81157133542001 34.81319877741444,32.168541496302325,69.13116944953799 34.81323349089012,32.16856181692382,35.746298832818866 34.81323983514231,32.168586634382315,46.211475271731615 34.813206609316815,32.168542945231124,228.18468821048737 34.813251068079154,32.16859183940551,148.21623702161014 34.81331942813354,32.16855267586893,132.65552565269172 34.813323106993735,32.168528382537254,120.97808553371578 34.81331092861019,32.16850930706558,16.62096291128546 34.813312573363746,32.16859563400369,12.036383140832186 34.8132948440001,32.168517385074566,136.84689652360976 34.8132613712398,32.16858530746598,265.28265684470534 34.813221350347156,32.16858290094955,34.55040445830673 34.81324326835144,32.16857049448663,107.46874392777681</coordinates>
            </LineString>
        </Placemark>
        <Placemark id="7">
            <name>START</name>
            <styleUrl>#8</styleUrl>
            <Point id="6">
                <coordinates>34.81323262246804,32.16875395937837,29.042548715136945</coordinates>
            </Point>
        </Placemark>
    </Document>
</kml>
